{
  "type": "FeatureCollection",
  "features": [
    {
      "type": "Feature",
      "properties": {
        "norad_id": 30604,
        "name": "FENGYUN 1C DEB",
        "group": "fengyun-1c-debris",
        "lat": 79.66345651872122,
        "lon": -107.6326543954572,
        "alt_km": 773.7365545145185,
        "timestamp": "2025-12-09T05:43:21.003422+00:00",
        "meta_object_name": "FENGYUN 1C DEB",
        "meta_object_id": "1999-025AMK",
        "meta_epoch": "2025-12-08T09:06:41.243328",
        "meta_mean_motion": 14.23599788,
        "meta_eccentricity": 0.02099617,
        "meta_inclination": 98.4029,
        "meta_ra_of_asc_node": 17.4087,
        "meta_arg_of_pericenter": 19.6162,
        "meta_mean_anomaly": 355.2798,
        "meta_ephemeris_type": 0,
        "meta_classification_type": "U",
        "meta_norad_cat_id": 30604,
        "meta_element_set_no": 999,
        "meta_rev_at_epoch": 97777,
        "meta_bstar": 0.00053289688,
        "meta_mean_motion_dot": 1.479e-05,
        "meta_mean_motion_ddot": 0,
        "tle_line1": "1 30604U 99025AMK 25342.37964402  .00001479  00000+0  53290-3 0  9991",
        "tle_line2": "2 30604  98.4029  17.4087 0209961  19.6162 355.2798 14.23599788977778"
      },
      "geometry": {
        "type": "Point",
        "coordinates": [
          -107.6326543954572,
          79.66345651872122
        ]
      }
    },
    {
      "type": "Feature",
      "properties": {
        "norad_id": 30606,
        "name": "FENGYUN 1C DEB",
        "group": "fengyun-1c-debris",
        "lat": 14.337306288307245,
        "lon": -8.596211091842582,
        "alt_km": 804.3618804560328,
        "timestamp": "2025-12-09T05:43:21.003432+00:00",
        "meta_object_name": "FENGYUN 1C DEB",
        "meta_object_id": "1999-025AMM",
        "meta_epoch": "2025-12-08T12:13:13.780128",
        "meta_mean_motion": 14.57589446,
        "meta_eccentricity": 0.02140599,
        "meta_inclination": 98.0959,
        "meta_ra_of_asc_node": 352.7788,
        "meta_arg_of_pericenter": 150.3088,
        "meta_mean_anomaly": 1.7423,
        "meta_ephemeris_type": 0,
        "meta_classification_type": "U",
        "meta_norad_cat_id": 30606,
        "meta_element_set_no": 999,
        "meta_rev_at_epoch": 99180,
        "meta_bstar": 0.00078173995,
        "meta_mean_motion_dot": 4.83e-05,
        "meta_mean_motion_ddot": 0,
        "tle_line1": "1 30606U 99025AMM 25342.50918727  .00004830  00000+0  78174-3 0  9999",
        "tle_line2": "2 30606  98.0959 352.7788 0214059 150.3088   1.7423 14.57589446991800"
      },
      "geometry": {
        "type": "Point",
        "coordinates": [
          -8.596211091842582,
          14.337306288307245
        ]
      }
    },
    {
      "type": "Feature",
      "properties": {
        "norad_id": 30608,
        "name": "FENGYUN 1C DEB",
        "group": "fengyun-1c-debris",
        "lat": 67.86335838547754,
        "lon": -111.95268969295402,
        "alt_km": 788.0762285471237,
        "timestamp": "2025-12-09T05:43:21.003442+00:00",
        "meta_object_name": "FENGYUN 1C DEB",
        "meta_object_id": "1999-025AMP",
        "meta_epoch": "2025-12-08T19:41:18.525984",
        "meta_mean_motion": 14.28443829,
        "meta_eccentricity": 0.0015848,
        "meta_inclination": 98.7102,
        "meta_ra_of_asc_node": 45.4917,
        "meta_arg_of_pericenter": 190.4738,
        "meta_mean_anomaly": 291.3579,
        "meta_ephemeris_type": 0,
        "meta_classification_type": "U",
        "meta_norad_cat_id": 30608,
        "meta_element_set_no": 999,
        "meta_rev_at_epoch": 97383,
        "meta_bstar": 0.0019867,
        "meta_mean_motion_dot": 4.936e-05,
        "meta_mean_motion_ddot": 0,
        "tle_line1": "1 30608U 99025AMP 25342.82035331  .00004936  00000+0  19867-2 0  9997",
        "tle_line2": "2 30608  98.7102  45.4917 0015848 190.4738 291.3579 14.28443829973835"
      },
      "geometry": {
        "type": "Point",
        "coordinates": [
          -111.95268969295402,
          67.86335838547754
        ]
      }
    },
    {
      "type": "Feature",
      "properties": {
        "norad_id": 30609,
        "name": "FENGYUN 1C DEB",
        "group": "fengyun-1c-debris",
        "lat": -37.62672928747613,
        "lon": 73.33928133442335,
        "alt_km": 939.6999713531168,
        "timestamp": "2025-12-09T05:43:21.003453+00:00",
        "meta_object_name": "FENGYUN 1C DEB",
        "meta_object_id": "1999-025AMQ",
        "meta_epoch": "2025-12-06T17:08:31.037568",
        "meta_mean_motion": 14.11134801,
        "meta_eccentricity": 0.01189523,
        "meta_inclination": 98.5675,
        "meta_ra_of_asc_node": 257.6035,
        "meta_arg_of_pericenter": 69.9172,
        "meta_mean_anomaly": 291.4756,
        "meta_ephemeris_type": 0,
        "meta_classification_type": "U",
        "meta_norad_cat_id": 30609,
        "meta_element_set_no": 999,
        "meta_rev_at_epoch": 95643,
        "meta_bstar": 0.0036904109,
        "meta_mean_motion_dot": 7.069e-05,
        "meta_mean_motion_ddot": 0,
        "tle_line1": "1 30609U 99025AMQ 25340.71424812  .00007069  00000+0  36904-2 0  9991",
        "tle_line2": "2 30609  98.5675 257.6035 0118952  69.9172 291.4756 14.11134801956433"
      },
      "geometry": {
        "type": "Point",
        "coordinates": [
          73.33928133442335,
          -37.62672928747613
        ]
      }
    },
    {
      "type": "Feature",
      "properties": {
        "norad_id": 30612,
        "name": "FENGYUN 1C DEB",
        "group": "fengyun-1c-debris",
        "lat": 65.10835532836859,
        "lon": -48.536071284035756,
        "alt_km": 464.2599928460513,
        "timestamp": "2025-12-09T05:43:21.003464+00:00",
        "meta_object_name": "FENGYUN 1C DEB",
        "meta_object_id": "1999-025AMT",
        "meta_epoch": "2025-12-08T17:38:45.669120",
        "meta_mean_motion": 15.28580351,
        "meta_eccentricity": 0.0032146,
        "meta_inclination": 99.0844,
        "meta_ra_of_asc_node": 331.0227,
        "meta_arg_of_pericenter": 2.4675,
        "meta_mean_anomaly": 176.5657,
        "meta_ephemeris_type": 0,
        "meta_classification_type": "U",
        "meta_norad_cat_id": 30612,
        "meta_element_set_no": 999,
        "meta_rev_at_epoch": 196,
        "meta_bstar": 0.0048489,
        "meta_mean_motion_dot": 0.00139173,
        "meta_mean_motion_ddot": 0,
        "tle_line1": "1 30612U 99025AMT 25342.73525080  .00139173  00000+0  48489-2 0  9991",
        "tle_line2": "2 30612  99.0844 331.0227 0032146   2.4675 176.5657 15.28580351  1967"
      },
      "geometry": {
        "type": "Point",
        "coordinates": [
          -48.536071284035756,
          65.10835532836859
        ]
      }
    },
    {
      "type": "Feature",
      "properties": {
        "norad_id": 30613,
        "name": "FENGYUN 1C DEB",
        "group": "fengyun-1c-debris",
        "lat": -24.36211778661925,
        "lon": 106.44411770047844,
        "alt_km": 566.4279696710419,
        "timestamp": "2025-12-09T05:43:21.003474+00:00",
        "meta_object_name": "FENGYUN 1C DEB",
        "meta_object_id": "1999-025AMU",
        "meta_epoch": "2025-12-08T13:59:35.551104",
        "meta_mean_motion": 15.16105699,
        "meta_eccentricity": 0.0069228,
        "meta_inclination": 98.3075,
        "meta_ra_of_asc_node": 101.9333,
        "meta_arg_of_pericenter": 181.0754,
        "meta_mean_anomaly": 179.0339,
        "meta_ephemeris_type": 0,
        "meta_classification_type": "U",
        "meta_norad_cat_id": 30613,
        "meta_element_set_no": 999,
        "meta_rev_at_epoch": 99333,
        "meta_bstar": 0.0059295,
        "meta_mean_motion_dot": 0.00123159,
        "meta_mean_motion_ddot": 0,
        "tle_line1": "1 30613U 99025AMU 25342.58305036  .00123159  00000+0  59295-2 0  9996",
        "tle_line2": "2 30613  98.3075 101.9333 0069228 181.0754 179.0339 15.16105699993332"
      },
      "geometry": {
        "type": "Point",
        "coordinates": [
          106.44411770047844,
          -24.36211778661925
        ]
      }
    },
    {
      "type": "Feature",
      "properties": {
        "norad_id": 30616,
        "name": "FENGYUN 1C DEB",
        "group": "fengyun-1c-debris",
        "lat": 1.6164984748891729,
        "lon": -137.79012249515233,
        "alt_km": 1098.6493713922355,
        "timestamp": "2025-12-09T05:43:21.003484+00:00",
        "meta_object_name": "FENGYUN 1C DEB",
        "meta_object_id": "1999-025AMX",
        "meta_epoch": "2025-12-07T02:27:49.881888",
        "meta_mean_motion": 13.35989164,
        "meta_eccentricity": 0.03798044,
        "meta_inclination": 98.6415,
        "meta_ra_of_asc_node": 40.1498,
        "meta_arg_of_pericenter": 270.1096,
        "meta_mean_anomaly": 85.6525,
        "meta_ephemeris_type": 0,
        "meta_classification_type": "U",
        "meta_norad_cat_id": 30616,
        "meta_element_set_no": 999,
        "meta_rev_at_epoch": 91625,
        "meta_bstar": 0.0030001071,
        "meta_mean_motion_dot": 2.28e-05,
        "meta_mean_motion_ddot": 0,
        "tle_line1": "1 30616U 99025AMX 25341.10266067  .00002280  00000+0  30001-2 0  9991",
        "tle_line2": "2 30616  98.6415  40.1498 0379804 270.1096  85.6525 13.35989164916256"
      },
      "geometry": {
        "type": "Point",
        "coordinates": [
          -137.79012249515233,
          1.6164984748891729
        ]
      }
    }
  ]
}